TEVEL2-3                
1 63218U 25052J   26153.95011284  .00017808  00000+0  55310-3 0  9991
2 63218  97.3892  49.9203 0003803 141.8658 218.2854 15.33414671 67912
TEVEL2-2                
1 63219U 25052K   26153.95536147  .00017943  00000+0  55803-3 0  9999
2 63219  97.3892  49.9073 0003772 142.5161 217.6345 15.33371007 67913
TEVEL2-9                
1 63237U 25052AD  26153.65321982  .00017948  00000+0  59288-3 0  9991
2 63237  97.3951  49.0123 0006296 173.9352 186.1967 15.31424105 67804
TEVEL2-7                
1 63238U 25052AE  26153.95280667  .00016462  00000+0  54873-3 0  9994
2 63238  97.3957  49.2324 0006233 173.5384 186.5938 15.31150818 67841
TEVEL2-8                
1 63239U 25052AF  26153.69949326  .00017430  00000+0  58123-3 0  9998
2 63239  97.3957  48.9577 0006322 174.6090 185.5220 15.31126309 67800
INNOSAT 16 (RS92S7)     
1 64878U 25155C   26154.16054419  .00006225  00000+0  24989-3 0  9998
2 64878  97.4561 121.3356 0008979 228.1442 131.9030 15.25299427 78530
GEOSCAN 6 (RS92S6)      
1 64879U 25155D   26154.18579723  .00011413  00000+0  39681-3 0  9991
2 64879  97.4554 122.6872 0006473 212.9131 147.1707 15.29872054 78620
GEOSCAN 1 (RS92S1)      
1 64880U 25155E   26154.19359410  .00013148  00000+0  44863-3 0  9998
2 64880  97.4550 122.8311 0006403 212.5112 147.5735 15.30447211 78637
239ALFEROV (RS61S)      
1 64881U 25155F   26154.18282304  .00016182  00000+0  51661-3 0  9990
2 64881  97.4552 123.3357 0005995 208.7583 151.3329 15.32547290 78665
GEOSCAN 2 (RS92S2)      
1 64890U 25155Q   26154.18975928  .00012573  00000+0  42559-3 0  9997
2 64890  97.4550 122.9742 0006254 196.0044 164.1000 15.30719206 78648
GEOSCAN 5 (RS92S5)      
1 64891U 25155R   26154.17475301  .00015844  00000+0  50108-3 0  9990
2 64891  97.4544 123.4597 0004654 212.3070 147.7888 15.32861778 78677
GEOSCAN 4 (RS92S4)      
1 64892U 25155S   26154.16031507  .00015791  00000+0  49713-3 0  9997
2 64892  97.4547 123.4896 0004717 213.2258 146.8688 15.33007798 78674
GEOSCAN 3 (RS92S3)      
1 64893U 25155T   26154.17878336  .00019729  00000+0  58434-3 0  9993
2 64893  97.4536 123.8984 0004554 210.0099 150.0884 15.34898634 78709
INNOSAT 3 (RS92S0)      
1 64894U 25155U   26154.17818185  .00040471  00000+0  92288-3 0  9993
2 64894  97.4489 125.3502 0003769 190.3227 169.7944 15.42793887 78808
KNACKSAT-2              
1 67683U 98067XZ  26153.80264404  .00045408  00000+0  58253-3 0  9991
2 67683  51.6300   6.7601 0010958 153.2067 206.9494 15.58609395 18031
